{"type": "FeatureCollection", "features": [ {"type": "Feature", "properties": {"norad_id": 31057, "name": "FENGYUN 1C DEB", "group": "fengyun-1c-debris", "lat": 50.40114236737775, "lon": 4.011795352245251, "alt_km": 688.9996039768657, "timestamp": "2025-12-03T08:58:46.281934+00:00", "meta": {"OBJECT_NAME": "FENGYUN 1C DEB", "OBJECT_ID": "1999-025BFB", "EPOCH": "2025-11-15T08:50:16.083744", "MEAN_MOTION": 14.78766925, "ECCENTRICITY": 0.01394535, "INCLINATION": 99.2623, "RA_OF_ASC_NODE": 354.6749, "ARG_OF_PERICENTER": 337.6801, "MEAN_ANOMALY": 21.8374, "EPHEMERIS_TYPE": 0, "CLASSIFICATION_TYPE": "U", "NORAD_CAT_ID": 31057, "ELEMENT_SET_NO": 999, "REV_AT_EPOCH": 61548, "BSTAR": 0.0011048389, "MEAN_MOTION_DOT": 9.496e-05, "MEAN_MOTION_DDOT": 0}, "tle": {"line1": "1 31057U 99025BFB 25319.36824171  .00009496  00000+0  11048-2 0  9996", "line2": "2 31057  99.2623 354.6749 0139453 337.6801  21.8374 14.78766925615484"}}, "geometry": {"type": "Point", "coordinates": [4.011795352245251, 50.40114236737775]}}, {"type": "Feature", "properties": {"norad_id": 31058, "name": "FENGYUN 1C DEB", "group": "fengyun-1c-debris", "lat": -38.637056487706325, "lon": -67.31493183971112, "alt_km": 714.2755336140126, "timestamp": "2025-12-03T08:58:46.281944+00:00", "meta": {"OBJECT_NAME": "FENGYUN 1C DEB", "OBJECT_ID": "1999-025BFC", "EPOCH": "2025-11-30T14:27:22.580352", "MEAN_MOTION": 14.76018692, "ECCENTRICITY": 0.0094738, "INCLINATION": 99.5638, "RA_OF_ASC_NODE": 281.6638, "ARG_OF_PERICENTER": 143.0864, "MEAN_ANOMALY": 217.691, "EPHEMERIS_TYPE": 0, "CLASSIFICATION_TYPE": "U", "NORAD_CAT_ID": 31058, "ELEMENT_SET_NO": 999, "REV_AT_EPOCH": 99370, "BSTAR": 0.0011184, "MEAN_MOTION_DOT": 8.226e-05, "MEAN_MOTION_DDOT": 0}, "tle": {"line1": "1 31058U 99025BFC 25334.60234468  .00008226  00000+0  11184-2 0  9996", "line2": "2 31058  99.5638 281.6638 0094738 143.0864 217.6910 14.76018692993708"}}, "geometry": {"type": "Point", "coordinates": [-67.31493183971112, -38.637056487706325]}}, {"type": "Feature", "properties": {"norad_id": 31062, "name": "FENGYUN 1C DEB", "group": "fengyun-1c-debris", "lat": -80.37232887366682, "lon": -130.66207285147823, "alt_km": 940.0704433949277, "timestamp": "2025-12-03T08:58:46.281954+00:00", "meta": {"OBJECT_NAME": "FENGYUN 1C DEB", "OBJECT_ID": "1999-025BFG", "EPOCH": "2025-12-01T19:02:39.968160", "MEAN_MOTION": 13.75681865, "ECCENTRICITY": 0.01719686, "INCLINATION": 98.9972, "RA_OF_ASC_NODE": 158.7848, "ARG_OF_PERICENTER": 346.9931, "MEAN_ANOMALY": 24.4767, "EPHEMERIS_TYPE": 0, "CLASSIFICATION_TYPE": "U", "NORAD_CAT_ID": 31062, "ELEMENT_SET_NO": 999, "REV_AT_EPOCH": 94083, "BSTAR": 0.00031564511, "MEAN_MOTION_DOT": 2.98e-06, "MEAN_MOTION_DDOT": 0}, "tle": {"line1": "1 31062U 99025BFG 25335.79351815  .00000298  00000+0  31565-3 0  9995", "line2": "2 31062  98.9972 158.7848 0171968 346.9931  24.4767 13.75681865940830"}}, "geometry": {"type": "Point", "coordinates": [-130.66207285147823, -80.37232887366682]}}, {"type": "Feature", "properties": {"norad_id": 31064, "name": "FENGYUN 1C DEB", "group": "fengyun-1c-debris", "lat": -57.1067602428646, "lon": -26.20238980755602, "alt_km": 811.4514068568642, "timestamp": "2025-12-03T08:58:46.281965+00:00", "meta": {"OBJECT_NAME": "FENGYUN 1C DEB", "OBJECT_ID": "1999-025BFJ", "EPOCH": "2025-12-02T04:36:13.812192", "MEAN_MOTION": 14.22095698, "ECCENTRICITY": 0.02421517, "INCLINATION": 98.5732, "RA_OF_ASC_NODE": 319.1588, "ARG_OF_PERICENTER": 32.1994, "MEAN_ANOMALY": 343.0002, "EPHEMERIS_TYPE": 0, "CLASSIFICATION_TYPE": "U", "NORAD_CAT_ID": 31064, "ELEMENT_SET_NO": 999, "REV_AT_EPOCH": 97105, "BSTAR": 0.00043566645, "MEAN_MOTION_DOT": 1.254e-05, "MEAN_MOTION_DDOT": 0}, "tle": {"line1": "1 31064U 99025BFJ 25336.19182653  .00001254  00000+0  43567-3 0  9992", "line2": "2 31064  98.5732 319.1588 0242151  32.1994 343.0002 14.22095698971058"}}, "geometry": {"type": "Point", "coordinates": [-26.20238980755602, -57.1067602428646]}}, {"type": "Feature", "properties": {"norad_id": 31065, "name": "FENGYUN 1C DEB", "group": "fengyun-1c-debris", "lat": 31.244629208722234, "lon": -8.41814133376378, "alt_km": 773.2278516207771, "timestamp": "2025-12-03T08:58:46.281975+00:00", "meta": {"OBJECT_NAME": "FENGYUN 1C DEB", "OBJECT_ID": "1999-025BFK", "EPOCH": "2025-11-25T19:13:40.705248", "MEAN_MOTION": 14.2807034, "ECCENTRICITY": 0.00359078, "INCLINATION": 98.4674, "RA_OF_ASC_NODE": 349.424, "ARG_OF_PERICENTER": 80.5809, "MEAN_ANOMALY": 279.9429, "EPHEMERIS_TYPE": 0, "CLASSIFICATION_TYPE": "U", "NORAD_CAT_ID": 31065, "ELEMENT_SET_NO": 999, "REV_AT_EPOCH": 64336, "BSTAR": 0.0010552682, "MEAN_MOTION_DOT": 2.598e-05, "MEAN_MOTION_DDOT": 0}, "tle": {"line1": "1 31065U 99025BFK 25329.80116557  .00002598  00000+0  10553-2 0  9993", "line2": "2 31065  98.4674 349.4240 0035907  80.5809 279.9429 14.28070340643368"}}, "geometry": {"type": "Point", "coordinates": [-8.41814133376378, 31.244629208722234]}}, {"type": "Feature", "properties": {"norad_id": 31068, "name": "FENGYUN 1C DEB", "group": "fengyun-1c-debris", "lat": -11.051165789843198, "lon": -38.36544532645416, "alt_km": 975.1516299543146, "timestamp": "2025-12-03T08:58:46.281985+00:00", "meta": {"OBJECT_NAME": "FENGYUN 1C DEB", "OBJECT_ID": "1999-025BFN", "EPOCH": "2025-12-01T16:08:08.292480", "MEAN_MOTION": 14.09179849, "ECCENTRICITY": 0.01652659, "INCLINATION": 98.6281, "RA_OF_ASC_NODE": 318.3046, "ARG_OF_PERICENTER": 149.4805, "MEAN_ANOMALY": 211.611, "EPHEMERIS_TYPE": 0, "CLASSIFICATION_TYPE": "U", "NORAD_CAT_ID": 31068, "ELEMENT_SET_NO": 999, "REV_AT_EPOCH": 96199, "BSTAR": 0.00025218093, "MEAN_MOTION_DOT": 4.56e-06, "MEAN_MOTION_DDOT": 0}, "tle": {"line1": "1 31068U 99025BFN 25335.67231820  .00000456  00000+0  25218-3 0  9995", "line2": "2 31068  98.6281 318.3046 0165265 149.4805 211.6110 14.09179849961993"}}, "geometry": {"type": "Point", "coordinates": [-38.36544532645416, -11.051165789843198]}}, {"type": "Feature", "properties": {"norad_id": 31069, "name": "FENGYUN 1C DEB", "group": "fengyun-1c-debris", "lat": 8.378451790551258, "lon": -41.84967114140841, "alt_km": 673.6060333493879, "timestamp": "2025-12-03T08:58:46.281995+00:00", "meta": {"OBJECT_NAME": "FENGYUN 1C DEB", "OBJECT_ID": "1999-025BFP", "EPOCH": "2025-12-01T16:38:56.126688", "MEAN_MOTION": 14.5697427, "ECCENTRICITY": 0.01048097, "INCLINATION": 99.099, "RA_OF_ASC_NODE": 134.9638, "ARG_OF_PERICENTER": 110.7051, "MEAN_ANOMALY": 250.5416, "EPHEMERIS_TYPE": 0, "CLASSIFICATION_TYPE": "U", "NORAD_CAT_ID": 31069, "ELEMENT_SET_NO": 999, "REV_AT_EPOCH": 98525, "BSTAR": 0.00086894232, "MEAN_MOTION_DOT": 4.152e-05, "MEAN_MOTION_DDOT": 0}, "tle": {"line1": "1 31069U 99025BFP 25335.69370517  .00004152  00000+0  86894-3 0  9999", "line2": "2 31069  99.0990 134.9638 0104809 110.7051 250.5416 14.56974270985255"}}, "geometry": {"type": "Point", "coordinates": [-41.84967114140841, 8.378451790551258]}}, {"type": "Feature", "properties": {"norad_id": 31071, "name": "FENGYUN 1C DEB", "group": "fengyun-1c-debris", "lat": 57.859293188593576, "lon": 39.7157151460096, "alt_km": 724.2645317934748, "timestamp": "2025-12-03T08:58:46.282006+00:00", "meta": {"OBJECT_NAME": "FENGYUN 1C DEB", "OBJECT_ID": "1999-025BFR", "EPOCH": "2025-11-28T11:19:27.812352", "MEAN_MOTION": 14.52441146, "ECCENTRICITY": 0.00557097, "INCLINATION": 99.0422, "RA_OF_ASC_NODE": 49.1199, "ARG_OF_PERICENTER": 325.3377, "MEAN_ANOMALY": 34.419, "EPHEMERIS_TYPE": 0, "CLASSIFICATION_TYPE": "U", "NORAD_CAT_ID": 31071, "ELEMENT_SET_NO": 999, "REV_AT_EPOCH": 65287, "BSTAR": 0.0010703966, "MEAN_MOTION_DOT": 4.402e-05, "MEAN_MOTION_DDOT": 0}, "tle": {"line1": "1 31071U 99025BFR 25332.47184968  .00004402  00000+0  10704-2 0  9992", "line2": "2 31071  99.0422  49.1199 0055709 325.3377  34.4190 14.52441146652870"}}, "geometry": {"type": "Point", "coordinates": [39.7157151460096, 57.859293188593576]}}, {"type": "Feature", "properties": {"norad_id": 31072, "name": "FENGYUN 1C DEB", "group": "fengyun-1c-debris", "lat": 65.69880071737192, "lon": -176.48413720300235, "alt_km": 652.3770352455758, "timestamp": "2025-12-03T08:58:46.282016+00:00", "meta": {"OBJECT_NAME": "FENGYUN 1C DEB", "OBJECT_ID": "1999-025BFS", "EPOCH": "2025-12-01T12:39:34.187328", "MEAN_MOTION": 14.25425626, "ECCENTRICITY": 0.02105454, "INCLINATION": 99.3337, "RA_OF_ASC_NODE": 340.1902, "ARG_OF_PERICENTER": 129.6216, "MEAN_ANOMALY": 232.3757, "EPHEMERIS_TYPE": 0, "CLASSIFICATION_TYPE": "U", "NORAD_CAT_ID": 31072, "ELEMENT_SET_NO": 999, "REV_AT_EPOCH": 96483, "BSTAR": 0.00054382825, "MEAN_MOTION_DOT": 1.566e-05, "MEAN_MOTION_DDOT": 0}, "tle": {"line1": "1 31072U 99025BFS 25335.52747902  .00001566  00000+0  54383-3 0  9995", "line2": "2 31072  99.3337 340.1902 0210545 129.6216 232.3757 14.25425626964838"}}, "geometry": {"type": "Point", "coordinates": [-176.48413720300235, 65.69880071737192]}}, {"type": "Feature", "properties": {"norad_id": 31073, "name": "FENGYUN 1C DEB", "group": "fengyun-1c-debris", "lat": 47.90318211195403, "lon": 16.95671665251487, "alt_km": 838.1102608183, "timestamp": "2025-12-03T08:58:46.282027+00:00", "meta": {"OBJECT_NAME": "FENGYUN 1C DEB", "OBJECT_ID": "1999-025BFT", "EPOCH": "2025-12-03T01:37:19.680096", "MEAN_MOTION": 14.24707889, "ECCENTRICITY": 0.0045874, "INCLINATION": 99.2206, "RA_OF_ASC_NODE": 186.2773, "ARG_OF_PERICENTER": 313.0184, "MEAN_ANOMALY": 46.7154, "EPHEMERIS_TYPE": 0, "CLASSIFICATION_TYPE": "U", "NORAD_CAT_ID": 31073, "ELEMENT_SET_NO": 999, "REV_AT_EPOCH": 96945, "BSTAR": 0.0015631, "MEAN_MOTION_DOT": 3.631e-05, "MEAN_MOTION_DDOT": 0}, "tle": {"line1": "1 31073U 99025BFT 25337.06758889  .00003631  00000+0  15631-2 0  9990", "line2": "2 31073  99.2206 186.2773 0045874 313.0184  46.7154 14.24707889969456"}}, "geometry": {"type": "Point", "coordinates": [16.95671665251487, 47.90318211195403]}}]}